{"type": "FeatureCollection", "features": [ {"type": "Feature", "properties": {"norad_id": 34117, "name": "COSMOS 2251 DEB", "group": "cosmos-2251-debris", "lat": -67.76472411773322, "lon": -141.03375901518484, "alt_km": 804.2806915770843, "timestamp": "2025-12-06T22:38:43.122776+00:00", "meta": {"OBJECT_NAME": "COSMOS 2251 DEB", "OBJECT_ID": "1993-036KN", "EPOCH": "2025-12-05T18:47:34.349280", "MEAN_MOTION": 14.39969266, "ECCENTRICITY": 0.00543901, "INCLINATION": 74.0403, "RA_OF_ASC_NODE": 356.6817, "ARG_OF_PERICENTER": 75.1599, "MEAN_ANOMALY": 285.5572, "EPHEMERIS_TYPE": 0, "CLASSIFICATION_TYPE": "U", "NORAD_CAT_ID": 34117, "ELEMENT_SET_NO": 999, "REV_AT_EPOCH": 88023, "BSTAR": 0.0011934293, "MEAN_MOTION_DOT": 3.798e-05, "MEAN_MOTION_DDOT": 0}, "tle": {"line1": "1 34117U 93036KN  25339.78303645  .00003798  00000+0  11934-2 0  9991", "line2": "2 34117  74.0403 356.6817 0054390  75.1599 285.5572 14.39969266880239"}}, "geometry": {"type": "Point", "coordinates": [-141.03375901518484, -67.76472411773322]}}, {"type": "Feature", "properties": {"norad_id": 34118, "name": "COSMOS 2251 DEB", "group": "cosmos-2251-debris", "lat": -68.84637693797077, "lon": -147.02817000937486, "alt_km": 634.5359975356087, "timestamp": "2025-12-06T22:38:43.122786+00:00", "meta": {"OBJECT_NAME": "COSMOS 2251 DEB", "OBJECT_ID": "1993-036KP", "EPOCH": "2025-12-06T12:31:30.502848", "MEAN_MOTION": 14.93566696, "ECCENTRICITY": 0.00598807, "INCLINATION": 73.9534, "RA_OF_ASC_NODE": 261.8833, "ARG_OF_PERICENTER": 93.7961, "MEAN_ANOMALY": 83.9821, "EPHEMERIS_TYPE": 0, "CLASSIFICATION_TYPE": "U", "NORAD_CAT_ID": 34118, "ELEMENT_SET_NO": 999, "REV_AT_EPOCH": 89083, "BSTAR": 0.003645012, "MEAN_MOTION_DOT": 0.00040004, "MEAN_MOTION_DDOT": 0}, "tle": {"line1": "1 34118U 93036KP  25340.52188082  .00040004  00000+0  36450-2 0  9993", "line2": "2 34118  73.9534 261.8833 0059880  93.7961  83.9821 14.93566696890830"}}, "geometry": {"type": "Point", "coordinates": [-147.02817000937486, -68.84637693797077]}}, {"type": "Feature", "properties": {"norad_id": 34120, "name": "COSMOS 2251 DEB", "group": "cosmos-2251-debris", "lat": 22.214139148091714, "lon": 39.52735188895182, "alt_km": 921.7075294862871, "timestamp": "2025-12-06T22:38:43.122796+00:00", "meta": {"OBJECT_NAME": "COSMOS 2251 DEB", "OBJECT_ID": "1993-036KR", "EPOCH": "2025-12-06T10:45:26.067168", "MEAN_MOTION": 13.98673118, "ECCENTRICITY": 0.01816759, "INCLINATION": 73.9917, "RA_OF_ASC_NODE": 227.1178, "ARG_OF_PERICENTER": 56.2168, "MEAN_ANOMALY": 125.3111, "EPHEMERIS_TYPE": 0, "CLASSIFICATION_TYPE": "U", "NORAD_CAT_ID": 34120, "ELEMENT_SET_NO": 999, "REV_AT_EPOCH": 85892, "BSTAR": 0.00065649721, "MEAN_MOTION_DOT": 1.063e-05, "MEAN_MOTION_DDOT": 0}, "tle": {"line1": "1 34120U 93036KR  25340.44821837  .00001063  00000+0  65650-3 0  9996", "line2": "2 34120  73.9917 227.1178 0181675  56.2168 125.3111 13.98673118858925"}}, "geometry": {"type": "Point", "coordinates": [39.52735188895182, 22.214139148091714]}}, {"type": "Feature", "properties": {"norad_id": 34121, "name": "COSMOS 2251 DEB", "group": "cosmos-2251-debris", "lat": 30.797662382559164, "lon": -82.74947959113189, "alt_km": 1089.6772141037482, "timestamp": "2025-12-06T22:38:43.122807+00:00", "meta": {"OBJECT_NAME": "COSMOS 2251 DEB", "OBJECT_ID": "1993-036KS", "EPOCH": "2025-12-06T15:31:41.632896", "MEAN_MOTION": 13.91897511, "ECCENTRICITY": 0.02399092, "INCLINATION": 73.9926, "RA_OF_ASC_NODE": 107.6107, "ARG_OF_PERICENTER": 314.3644, "MEAN_ANOMALY": 148.6664, "EPHEMERIS_TYPE": 0, "CLASSIFICATION_TYPE": "U", "NORAD_CAT_ID": 34121, "ELEMENT_SET_NO": 999, "REV_AT_EPOCH": 85040, "BSTAR": 0.0018635236, "MEAN_MOTION_DOT": 2.979e-05, "MEAN_MOTION_DDOT": 0}, "tle": {"line1": "1 34121U 93036KS  25340.64700964  .00002979  00000+0  18635-2 0  9993", "line2": "2 34121  73.9926 107.6107 0239909 314.3644 148.6664 13.91897511850405"}}, "geometry": {"type": "Point", "coordinates": [-82.74947959113189, 30.797662382559164]}}, {"type": "Feature", "properties": {"norad_id": 34122, "name": "COSMOS 2251 DEB", "group": "cosmos-2251-debris", "lat": -43.55667325724187, "lon": 113.9896494555975, "alt_km": 666.8736499467759, "timestamp": "2025-12-06T22:38:43.122817+00:00", "meta": {"OBJECT_NAME": "COSMOS 2251 DEB", "OBJECT_ID": "1993-036KT", "EPOCH": "2025-12-05T11:04:07.095072", "MEAN_MOTION": 14.64905259, "ECCENTRICITY": 0.00839377, "INCLINATION": 74.0353, "RA_OF_ASC_NODE": 132.6349, "ARG_OF_PERICENTER": 31.593, "MEAN_ANOMALY": 29.2974, "EPHEMERIS_TYPE": 0, "CLASSIFICATION_TYPE": "U", "NORAD_CAT_ID": 34122, "ELEMENT_SET_NO": 999, "REV_AT_EPOCH": 88578, "BSTAR": 0.0020929875, "MEAN_MOTION_DOT": 0.00011775, "MEAN_MOTION_DDOT": 0}, "tle": {"line1": "1 34122U 93036KT  25339.46119323  .00011775  00000+0  20930-2 0  9990", "line2": "2 34122  74.0353 132.6349 0083937  31.5930  29.2974 14.64905259885789"}}, "geometry": {"type": "Point", "coordinates": [113.9896494555975, -43.55667325724187]}}, {"type": "Feature", "properties": {"norad_id": 34127, "name": "COSMOS 2251 DEB", "group": "cosmos-2251-debris", "lat": -22.52389150195181, "lon": -118.90785441065113, "alt_km": 741.0580181070545, "timestamp": "2025-12-06T22:38:43.122827+00:00", "meta": {"OBJECT_NAME": "COSMOS 2251 DEB", "OBJECT_ID": "1993-036KY", "EPOCH": "2025-12-06T05:03:11.876832", "MEAN_MOTION": 14.31439165, "ECCENTRICITY": 0.01147761, "INCLINATION": 74.18, "RA_OF_ASC_NODE": 55.6634, "ARG_OF_PERICENTER": 257.2051, "MEAN_ANOMALY": 131.4114, "EPHEMERIS_TYPE": 0, "CLASSIFICATION_TYPE": "U", "NORAD_CAT_ID": 34127, "ELEMENT_SET_NO": 999, "REV_AT_EPOCH": 86678, "BSTAR": 0.0031030837, "MEAN_MOTION_DOT": 8.838e-05, "MEAN_MOTION_DDOT": 0}, "tle": {"line1": "1 34127U 93036KY  25340.21055413  .00008838  00000+0  31031-2 0  9999", "line2": "2 34127  74.1800  55.6634 0114776 257.2051 131.4114 14.31439165866783"}}, "geometry": {"type": "Point", "coordinates": [-118.90785441065113, -22.52389150195181]}}, {"type": "Feature", "properties": {"norad_id": 34128, "name": "COSMOS 2251 DEB", "group": "cosmos-2251-debris", "lat": 40.4357287771008, "lon": -37.298156311986524, "alt_km": 543.8967564963614, "timestamp": "2025-12-06T22:38:43.122837+00:00", "meta": {"OBJECT_NAME": "COSMOS 2251 DEB", "OBJECT_ID": "1993-036KZ", "EPOCH": "2025-12-06T08:43:23.006208", "MEAN_MOTION": 15.00695594, "ECCENTRICITY": 0.00261262, "INCLINATION": 73.9999, "RA_OF_ASC_NODE": 309.7309, "ARG_OF_PERICENTER": 62.5901, "MEAN_ANOMALY": 87.3375, "EPHEMERIS_TYPE": 0, "CLASSIFICATION_TYPE": "U", "NORAD_CAT_ID": 34128, "ELEMENT_SET_NO": 999, "REV_AT_EPOCH": 89071, "BSTAR": 0.00383534, "MEAN_MOTION_DOT": 0.00049236, "MEAN_MOTION_DDOT": 0}, "tle": {"line1": "1 34128U 93036KZ  25340.36346072  .00049236  00000+0  38353-2 0  9991", "line2": "2 34128  73.9999 309.7309 0026126  62.5901  87.3375 15.00695594890719"}}, "geometry": {"type": "Point", "coordinates": [-37.298156311986524, 40.4357287771008]}}, {"type": "Feature", "properties": {"norad_id": 34129, "name": "COSMOS 2251 DEB", "group": "cosmos-2251-debris", "lat": 49.86710324893689, "lon": 151.0166435245458, "alt_km": 624.4740167333093, "timestamp": "2025-12-06T22:38:43.122847+00:00", "meta": {"OBJECT_NAME": "COSMOS 2251 DEB", "OBJECT_ID": "1993-036LA", "EPOCH": "2025-12-06T07:25:45.240096", "MEAN_MOTION": 14.75569854, "ECCENTRICITY": 0.00327236, "INCLINATION": 74.0347, "RA_OF_ASC_NODE": 352.1073, "ARG_OF_PERICENTER": 75.7953, "MEAN_ANOMALY": 284.6853, "EPHEMERIS_TYPE": 0, "CLASSIFICATION_TYPE": "U", "NORAD_CAT_ID": 34129, "ELEMENT_SET_NO": 999, "REV_AT_EPOCH": 61203, "BSTAR": 0.002159199, "MEAN_MOTION_DOT": 0.00014849, "MEAN_MOTION_DDOT": 0}, "tle": {"line1": "1 34129U 93036LA  25340.30955139  .00014849  00000+0  21592-2 0  9995", "line2": "2 34129  74.0347 352.1073 0032723  75.7953 284.6853 14.75569854612032"}}, "geometry": {"type": "Point", "coordinates": [151.0166435245458, 49.86710324893689]}}, {"type": "Feature", "properties": {"norad_id": 34136, "name": "COSMOS 2251 DEB", "group": "cosmos-2251-debris", "lat": -9.782507293151578, "lon": -123.1044786287349, "alt_km": 573.8538976122927, "timestamp": "2025-12-06T22:38:43.122857+00:00", "meta": {"OBJECT_NAME": "COSMOS 2251 DEB", "OBJECT_ID": "1993-036LH", "EPOCH": "2025-12-06T15:59:08.535264", "MEAN_MOTION": 14.8001029, "ECCENTRICITY": 0.00862659, "INCLINATION": 74.0215, "RA_OF_ASC_NODE": 54.6107, "ARG_OF_PERICENTER": 179.2037, "MEAN_ANOMALY": 332.8361, "EPHEMERIS_TYPE": 0, "CLASSIFICATION_TYPE": "U", "NORAD_CAT_ID": 34136, "ELEMENT_SET_NO": 999, "REV_AT_EPOCH": 89920, "BSTAR": 0.00092474637, "MEAN_MOTION_DOT": 7.428e-05, "MEAN_MOTION_DDOT": 0}, "tle": {"line1": "1 34136U 93036LH  25340.66607101  .00007428  00000+0  92475-3 0  9999", "line2": "2 34136  74.0215  54.6107 0086265 179.2037 332.8361 14.80010290899206"}}, "geometry": {"type": "Point", "coordinates": [-123.1044786287349, -9.782507293151578]}}, {"type": "Feature", "properties": {"norad_id": 34139, "name": "COSMOS 2251 DEB", "group": "cosmos-2251-debris", "lat": -9.811171162633224, "lon": -97.7289992500723, "alt_km": 671.0700070557878, "timestamp": "2025-12-06T22:38:43.122867+00:00", "meta": {"OBJECT_NAME": "COSMOS 2251 DEB", "OBJECT_ID": "1993-036LL", "EPOCH": "2025-12-05T22:19:35.867136", "MEAN_MOTION": 14.58911278, "ECCENTRICITY": 0.00425861, "INCLINATION": 74.0319, "RA_OF_ASC_NODE": 267.0391, "ARG_OF_PERICENTER": 339.131, "MEAN_ANOMALY": 90.9886, "EPHEMERIS_TYPE": 0, "CLASSIFICATION_TYPE": "U", "NORAD_CAT_ID": 34139, "ELEMENT_SET_NO": 999, "REV_AT_EPOCH": 88050, "BSTAR": 0.0025037746, "MEAN_MOTION_DOT": 0.00011873, "MEAN_MOTION_DDOT": 0}, "tle": {"line1": "1 34139U 93036LL  25339.93027624  .00011873  00000+0  25038-2 0  9995", "line2": "2 34139  74.0319 267.0391 0042586 339.1310  90.9886 14.58911278880506"}}, "geometry": {"type": "Point", "coordinates": [-97.7289992500723, -9.811171162633224]}}]}